<?xml version="1.0" encoding="UTF-8"?>
<osm version="0.6" generator="Overpass API 0.7.59.5 b201bb38">
<note>The data included in this document is from www.openstreetmap.org. The data is made available under ODbL.</note>
<meta osm_base="2023-04-07T00:38:47Z" areas="2023-04-06T21:14:27Z"/>

<action type="modify">
<old>
  <way id="148848603" version="11" timestamp="2023-03-20T19:51:00Z" changeset="133913140" uid="2914055" user="Elia Z">
    <bounds minlat="45.4067474" minlon="11.4046711" maxlat="45.4081955" maxlon="11.4055135"/>
    <nd ref="2150159489" lat="45.4067474" lon="11.4046711"/>
    <nd ref="4848172186" lat="45.4068110" lon="11.4047347"/>
    <nd ref="313142504" lat="45.4068820" lon="11.4048013"/>
    <nd ref="2150159508" lat="45.4071368" lon="11.4049899"/>
    <nd ref="2150159496" lat="45.4076801" lon="11.4053175"/>
    <nd ref="2151586376" lat="45.4078445" lon="11.4053890"/>
    <nd ref="2151586373" lat="45.4079609" lon="11.4054335"/>
    <nd ref="313142505" lat="45.4081037" lon="11.4054817"/>
    <nd ref="2151592549" lat="45.4081955" lon="11.4055135"/>
    <tag k="ref" v="SP500"/>
    <tag k="highway" v="primary"/>
    <tag k="lanes" v="2"/>
    <tag k="loc_ref" v="SP500"/>
    <tag k="name" v="Via Alcide de Gasperi"/>
    <tag k="old_ref" v="SS500"/>
  </way>
</old>
<new>
  <way id="148848603" version="12" timestamp="2023-04-06T09:15:53Z" changeset="134568554" uid="224342" user="mircozorzo">
    <bounds minlat="45.4067474" minlon="11.4046711" maxlat="45.4081955" maxlon="11.4055135"/>
    <nd ref="2150159489" lat="45.4067474" lon="11.4046711"/>
    <nd ref="4848172186" lat="45.4068110" lon="11.4047347"/>
    <nd ref="313142504" lat="45.4068820" lon="11.4048013"/>
    <nd ref="2150159508" lat="45.4071368" lon="11.4049899"/>
    <nd ref="2150159496" lat="45.4076801" lon="11.4053175"/>
    <nd ref="2151586376" lat="45.4078445" lon="11.4053890"/>
    <nd ref="2151586373" lat="45.4079609" lon="11.4054335"/>
    <nd ref="313142505" lat="45.4081037" lon="11.4054817"/>
    <nd ref="2151592549" lat="45.4081955" lon="11.4055135"/>
    <tag k="highway" v="primary"/>
    <tag k="lanes" v="2"/>
    <tag k="loc_ref" v="SP500"/>
    <tag k="name" v="Via Alcide de Gasperi"/>
    <tag k="old_ref" v="SS500"/>
    <tag k="ref" v="SP500"/>
    <tag k="surface" v="asphalt"/>
  </way>
</new>
</action>
<action type="modify">
<old>
  <way id="148848622" version="10" timestamp="2020-12-05T18:58:36Z" changeset="95345034" uid="504502" user="kkklllppp">
    <bounds minlat="45.4326741" minlon="11.4137198" maxlat="45.4335320" maxlon="11.4139043"/>
    <nd ref="1618958318" lat="45.4326741" lon="11.4137198"/>
    <nd ref="8197242739" lat="45.4327230" lon="11.4137308"/>
    <nd ref="3430692982" lat="45.4328033" lon="11.4137488"/>
    <nd ref="1436746262" lat="45.4334715" lon="11.4138874"/>
    <nd ref="313142510" lat="45.4335320" lon="11.4139043"/>
    <tag k="sidewalk" v="both"/>
    <tag k="bicycle" v="yes"/>
    <tag k="cycleway" v="no"/>
    <tag k="foot" v="yes"/>
    <tag k="highway" v="primary"/>
    <tag k="lanes" v="2"/>
    <tag k="loc_ref" v="SP500"/>
    <tag k="name" v="Via Sabbadini"/>
    <tag k="old_ref" v="SS500"/>
    <tag k="ref" v="SP500"/>
  </way>
</old>
<new>
  <way id="148848622" version="11" timestamp="2023-04-06T09:15:53Z" changeset="134568554" uid="224342" user="mircozorzo">
    <bounds minlat="45.4326741" minlon="11.4137198" maxlat="45.4335320" maxlon="11.4139043"/>
    <nd ref="1618958318" lat="45.4326741" lon="11.4137198"/>
    <nd ref="8197242739" lat="45.4327230" lon="11.4137308"/>
    <nd ref="3430692982" lat="45.4328033" lon="11.4137488"/>
    <nd ref="1436746262" lat="45.4334715" lon="11.4138874"/>
    <nd ref="313142510" lat="45.4335320" lon="11.4139043"/>
    <tag k="bicycle" v="yes"/>
    <tag k="cycleway" v="no"/>
    <tag k="foot" v="yes"/>
    <tag k="highway" v="primary"/>
    <tag k="lanes" v="2"/>
    <tag k="loc_ref" v="SP500"/>
    <tag k="name" v="Via Sabbadini"/>
    <tag k="old_ref" v="SS500"/>
    <tag k="ref" v="SP500"/>
    <tag k="sidewalk" v="both"/>
    <tag k="surface" v="asphalt"/>
  </way>
</new>
</action>
<action type="modify">
<old>
  <way id="207625995" version="4" timestamp="2015-07-24T23:12:28Z" changeset="32862169" uid="217070" user="Davlak">
    <bounds minlat="45.4324809" minlon="11.4136706" maxlat="45.4325240" maxlon="11.4136816"/>
    <nd ref="1618958315" lat="45.4324809" lon="11.4136706"/>
    <nd ref="3255965565" lat="45.4325240" lon="11.4136816"/>
    <tag k="ref" v="SP500"/>
    <tag k="bicycle" v="yes"/>
    <tag k="cycleway" v="no"/>
    <tag k="highway" v="primary"/>
    <tag k="lanes" v="2"/>
    <tag k="loc_ref" v="SP500"/>
    <tag k="name" v="Via Sabbatini"/>
    <tag k="old_ref" v="SS500"/>
  </way>
</old>
<new>
  <way id="207625995" version="5" timestamp="2023-04-06T09:15:53Z" changeset="134568554" uid="224342" user="mircozorzo">
    <bounds minlat="45.4324809" minlon="11.4136706" maxlat="45.4325240" maxlon="11.4136816"/>
    <nd ref="1618958315" lat="45.4324809" lon="11.4136706"/>
    <nd ref="3255965565" lat="45.4325240" lon="11.4136816"/>
    <tag k="bicycle" v="yes"/>
    <tag k="cycleway" v="no"/>
    <tag k="highway" v="primary"/>
    <tag k="lanes" v="2"/>
    <tag k="loc_ref" v="SP500"/>
    <tag k="name" v="Via Sabbatini"/>
    <tag k="old_ref" v="SS500"/>
    <tag k="ref" v="SP500"/>
    <tag k="surface" v="asphalt"/>
  </way>
</new>
</action>
<action type="modify">
<old>
  <way id="319186287" version="2" timestamp="2015-07-24T23:12:27Z" changeset="32862169" uid="217070" user="Davlak">
    <bounds minlat="45.4326445" minlon="11.4137123" maxlat="45.4326741" maxlon="11.4137198"/>
    <nd ref="3255965564" lat="45.4326445" lon="11.4137123"/>
    <nd ref="1618958318" lat="45.4326741" lon="11.4137198"/>
    <tag k="ref" v="SP500"/>
    <tag k="bicycle" v="yes"/>
    <tag k="cycleway" v="no"/>
    <tag k="highway" v="primary"/>
    <tag k="lanes" v="2"/>
    <tag k="loc_ref" v="SP500"/>
    <tag k="name" v="Via Sabbatini"/>
    <tag k="old_ref" v="SS500"/>
  </way>
</old>
<new>
  <way id="319186287" version="3" timestamp="2023-04-06T09:15:53Z" changeset="134568554" uid="224342" user="mircozorzo">
    <bounds minlat="45.4326445" minlon="11.4137123" maxlat="45.4326741" maxlon="11.4137198"/>
    <nd ref="3255965564" lat="45.4326445" lon="11.4137123"/>
    <nd ref="1618958318" lat="45.4326741" lon="11.4137198"/>
    <tag k="bicycle" v="yes"/>
    <tag k="cycleway" v="no"/>
    <tag k="highway" v="primary"/>
    <tag k="lanes" v="2"/>
    <tag k="loc_ref" v="SP500"/>
    <tag k="name" v="Via Sabbatini"/>
    <tag k="old_ref" v="SS500"/>
    <tag k="ref" v="SP500"/>
    <tag k="surface" v="asphalt"/>
  </way>
</new>
</action>
<action type="modify">
<old>
  <way id="319186288" version="3" timestamp="2016-08-05T22:32:29Z" changeset="41278949" uid="3877019" user="piligab">
    <bounds minlat="45.4325240" minlon="11.4136816" maxlat="45.4326445" maxlon="11.4137123"/>
    <nd ref="3255965565" lat="45.4325240" lon="11.4136816"/>
    <nd ref="3255965564" lat="45.4326445" lon="11.4137123"/>
    <tag k="ref" v="SP500"/>
    <tag k="bicycle" v="yes"/>
    <tag k="bridge" v="yes"/>
    <tag k="cycleway" v="no"/>
    <tag k="highway" v="primary"/>
    <tag k="lanes" v="2"/>
    <tag k="layer" v="1"/>
    <tag k="loc_ref" v="SP500"/>
    <tag k="name" v="Via Sabbatini"/>
    <tag k="old_ref" v="SS500"/>
  </way>
</old>
<new>
  <way id="319186288" version="4" timestamp="2023-04-06T09:15:53Z" changeset="134568554" uid="224342" user="mircozorzo">
    <bounds minlat="45.4325240" minlon="11.4136816" maxlat="45.4326445" maxlon="11.4137123"/>
    <nd ref="3255965565" lat="45.4325240" lon="11.4136816"/>
    <nd ref="3255965564" lat="45.4326445" lon="11.4137123"/>
    <tag k="bicycle" v="yes"/>
    <tag k="bridge" v="yes"/>
    <tag k="cycleway" v="no"/>
    <tag k="highway" v="primary"/>
    <tag k="lanes" v="2"/>
    <tag k="layer" v="1"/>
    <tag k="loc_ref" v="SP500"/>
    <tag k="name" v="Via Sabbatini"/>
    <tag k="old_ref" v="SS500"/>
    <tag k="ref" v="SP500"/>
    <tag k="surface" v="asphalt"/>
  </way>
</new>
</action>
<action type="modify">
<old>
  <way id="492848280" version="2" timestamp="2019-12-21T15:57:39Z" changeset="78715771" uid="2914055" user="Elia Z">
    <bounds minlat="45.4065840" minlon="11.4045538" maxlat="45.4067474" maxlon="11.4046711"/>
    <nd ref="4848172178" lat="45.4065840" lon="11.4045538"/>
    <nd ref="4848172193" lat="45.4066536" lon="11.4046165"/>
    <nd ref="2150159489" lat="45.4067474" lon="11.4046711"/>
    <tag k="ref" v="SP500"/>
    <tag k="highway" v="primary"/>
    <tag k="name" v="Via Alcide De Gasperi"/>
    <tag k="oneway" v="yes"/>
  </way>
</old>
<new>
  <way id="492848280" version="3" timestamp="2023-04-06T09:15:53Z" changeset="134568554" uid="224342" user="mircozorzo">
    <bounds minlat="45.4065840" minlon="11.4045538" maxlat="45.4067474" maxlon="11.4046711"/>
    <nd ref="4848172178" lat="45.4065840" lon="11.4045538"/>
    <nd ref="4848172193" lat="45.4066536" lon="11.4046165"/>
    <nd ref="2150159489" lat="45.4067474" lon="11.4046711"/>
    <tag k="highway" v="primary"/>
    <tag k="name" v="Via Alcide De Gasperi"/>
    <tag k="oneway" v="yes"/>
    <tag k="ref" v="SP500"/>
    <tag k="surface" v="asphalt"/>
  </way>
</new>
</action>
<action type="modify">
<old>
  <way id="1028868882" version="1" timestamp="2022-02-07T07:01:03Z" changeset="117104665" uid="276538" user="Laska">
    <bounds minlat="45.4065397" minlon="11.4045046" maxlat="45.4065563" maxlon="11.4045241"/>
    <nd ref="7075433575" lat="45.4065397" lon="11.4045046"/>
    <nd ref="4848172169" lat="45.4065563" lon="11.4045241"/>
    <tag k="ref" v="SP500"/>
    <tag k="highway" v="primary"/>
    <tag k="name" v="Via Crosetta"/>
    <tag k="oneway" v="yes"/>
  </way>
</old>
<new>
  <way id="1028868882" version="2" timestamp="2023-04-06T09:15:53Z" changeset="134568554" uid="224342" user="mircozorzo">
    <bounds minlat="45.4065397" minlon="11.4045046" maxlat="45.4065563" maxlon="11.4045241"/>
    <nd ref="7075433575" lat="45.4065397" lon="11.4045046"/>
    <nd ref="4848172169" lat="45.4065563" lon="11.4045241"/>
    <tag k="highway" v="primary"/>
    <tag k="name" v="Via Crosetta"/>
    <tag k="oneway" v="yes"/>
    <tag k="ref" v="SP500"/>
    <tag k="surface" v="asphalt"/>
  </way>
</new>
</action>
<action type="modify">
<old>
  <way id="1028868884" version="1" timestamp="2022-02-07T07:01:03Z" changeset="117104665" uid="276538" user="Laska">
    <bounds minlat="45.4065563" minlon="11.4045241" maxlat="45.4065840" maxlon="11.4045538"/>
    <nd ref="4848172169" lat="45.4065563" lon="11.4045241"/>
    <nd ref="4848172177" lat="45.4065685" lon="11.4045421"/>
    <nd ref="4848172178" lat="45.4065840" lon="11.4045538"/>
    <tag k="ref" v="SP500"/>
    <tag k="highway" v="primary"/>
    <tag k="junction" v="roundabout"/>
    <tag k="name" v="Via Alcide de Gasperi"/>
  </way>
</old>
<new>
  <way id="1028868884" version="2" timestamp="2023-04-06T09:15:53Z" changeset="134568554" uid="224342" user="mircozorzo">
    <bounds minlat="45.4065563" minlon="11.4045241" maxlat="45.4065840" maxlon="11.4045538"/>
    <nd ref="4848172169" lat="45.4065563" lon="11.4045241"/>
    <nd ref="4848172177" lat="45.4065685" lon="11.4045421"/>
    <nd ref="4848172178" lat="45.4065840" lon="11.4045538"/>
    <tag k="highway" v="primary"/>
    <tag k="junction" v="roundabout"/>
    <tag k="name" v="Via Alcide de Gasperi"/>
    <tag k="ref" v="SP500"/>
    <tag k="surface" v="asphalt"/>
  </way>
</new>
</action>

</osm>
